[{"OBJECT_NAME":"GRUS-1B","OBJECT_ID":"2021-022C","EPOCH":"2026-03-09T23:21:03.699936","MEAN_MOTION":14.98735678,"ECCENTRICITY":0.00144346,"INCLINATION":97.554,"RA_OF_ASC_NODE":315.3658,"ARG_OF_PERICENTER":300.5216,"MEAN_ANOMALY":59.4582,"EPHEMERIS_TYPE":0,"CLASSIFICATION_TYPE":"U","NORAD_CAT_ID":47934,"ELEMENT_SET_NO":999,"REV_AT_EPOCH":27103,"BSTAR":0.00025294791,"MEAN_MOTION_DOT":2.992e-5,"MEAN_MOTION_DDOT":0},{"OBJECT_NAME":"STARLINK-32523","OBJECT_ID":"2024-225C","EPOCH":"2026-03-09T22:00:01.999584","MEAN_MOTION":14.98354102,"ECCENTRICITY":0.00037666,"INCLINATION":70.0005,"RA_OF_ASC_NODE":163.9633,"ARG_OF_PERICENTER":272.8852,"MEAN_ANOMALY":208.8511,"EPHEMERIS_TYPE":0,"CLASSIFICATION_TYPE":"U","NORAD_CAT_ID":62165,"ELEMENT_SET_NO":999,"REV_AT_EPOCH":561,"BSTAR":-0.003783564,"MEAN_MOTION_DOT":-0.0004498,"MEAN_MOTION_DDOT":0}]
